CCSDS_OMM_VERS = 2.0
CREATION_DATE  = 
ORIGINATOR     = 

OBJECT_NAME    = STARLINK-36738
OBJECT_ID      = 2026-034R
CENTER_NAME    = EARTH
REF_FRAME      = TEME
TIME_SYSTEM    = UTC
MEAN_ELEMENT_THEORY = SGP/SGP4

EPOCH          = 2026-03-08T13:58:41.887200
MEAN_MOTION    = 15.80964340
ECCENTRICITY   = .00011124
INCLINATION    = 53.1590
RA_OF_ASC_NODE = 216.7724
ARG_OF_PERICENTER = 82.9686
MEAN_ANOMALY   = 277.1463

EPHEMERIS_TYPE = 0
CLASSIFICATION_TYPE = U
NORAD_CAT_ID   = 67865
ELEMENT_SET_NO = 999
REV_AT_EPOCH   = 376
BSTAR          = .14704736E-2
MEAN_MOTION_DOT = .301141E-2
MEAN_MOTION_DDOT = 0

CCSDS_OMM_VERS = 2.0
CREATION_DATE  = 
ORIGINATOR     = 

OBJECT_NAME    = STARLINK-36780
OBJECT_ID      = 2026-034S
CENTER_NAME    = EARTH
REF_FRAME      = TEME
TIME_SYSTEM    = UTC
MEAN_ELEMENT_THEORY = SGP/SGP4

EPOCH          = 2026-03-08T13:57:37.019808
MEAN_MOTION    = 15.80962671
ECCENTRICITY   = .00010034
INCLINATION    = 53.1594
RA_OF_ASC_NODE = 216.7661
ARG_OF_PERICENTER = 90.2390
MEAN_ANOMALY   = 269.8748

EPHEMERIS_TYPE = 0
CLASSIFICATION_TYPE = U
NORAD_CAT_ID   = 67866
ELEMENT_SET_NO = 999
REV_AT_EPOCH   = 376
BSTAR          = .15312545E-2
MEAN_MOTION_DOT = .314071E-2
MEAN_MOTION_DDOT = 0

CCSDS_OMM_VERS = 2.0
CREATION_DATE  = 
ORIGINATOR     = 

OBJECT_NAME    = STARLINK-36761
OBJECT_ID      = 2026-034T
CENTER_NAME    = EARTH
REF_FRAME      = TEME
TIME_SYSTEM    = UTC
MEAN_ELEMENT_THEORY = SGP/SGP4

EPOCH          = 2026-03-08T15:27:34.210944
MEAN_MOTION    = 15.81006906
ECCENTRICITY   = .00006789
INCLINATION    = 53.1594
RA_OF_ASC_NODE = 216.4453
ARG_OF_PERICENTER = 96.6886
MEAN_ANOMALY   = 263.4214

EPHEMERIS_TYPE = 0
CLASSIFICATION_TYPE = U
NORAD_CAT_ID   = 67867
ELEMENT_SET_NO = 999
REV_AT_EPOCH   = 377
BSTAR          = .18378215E-2
MEAN_MOTION_DOT = .380849E-2
MEAN_MOTION_DDOT = 0

CCSDS_OMM_VERS = 2.0
CREATION_DATE  = 
ORIGINATOR     = 

OBJECT_NAME    = STARLINK-36762
OBJECT_ID      = 2026-034U
CENTER_NAME    = EARTH
REF_FRAME      = TEME
TIME_SYSTEM    = UTC
MEAN_ELEMENT_THEORY = SGP/SGP4

EPOCH          = 2026-03-08T13:55:27.432768
MEAN_MOTION    = 15.80966847
ECCENTRICITY   = .00010924
INCLINATION    = 53.1594
RA_OF_ASC_NODE = 216.7572
ARG_OF_PERICENTER = 79.7067
MEAN_ANOMALY   = 280.4078

EPHEMERIS_TYPE = 0
CLASSIFICATION_TYPE = U
NORAD_CAT_ID   = 67868
ELEMENT_SET_NO = 999
REV_AT_EPOCH   = 376
BSTAR          = .14582694E-2
MEAN_MOTION_DOT = .298581E-2
MEAN_MOTION_DDOT = 0

CCSDS_OMM_VERS = 2.0
CREATION_DATE  = 
ORIGINATOR     = 

OBJECT_NAME    = STARLINK-36779
OBJECT_ID      = 2026-034V
CENTER_NAME    = EARTH
REF_FRAME      = TEME
TIME_SYSTEM    = UTC
MEAN_ELEMENT_THEORY = SGP/SGP4

EPOCH          = 2026-03-08T13:54:22.663872
MEAN_MOTION    = 15.80935225
ECCENTRICITY   = .0000975
INCLINATION    = 53.1594
RA_OF_ASC_NODE = 216.7514
ARG_OF_PERICENTER = 26.5360
MEAN_ANOMALY   = 333.5712

EPHEMERIS_TYPE = 0
CLASSIFICATION_TYPE = U
NORAD_CAT_ID   = 67869
ELEMENT_SET_NO = 999
REV_AT_EPOCH   = 376
BSTAR          = .2886136E-2
MEAN_MOTION_DOT = .613078E-2
MEAN_MOTION_DDOT = 0

CCSDS_OMM_VERS = 2.0
CREATION_DATE  = 
ORIGINATOR     = 

OBJECT_NAME    = STARLINK-36770
OBJECT_ID      = 2026-034W
CENTER_NAME    = EARTH
REF_FRAME      = TEME
TIME_SYSTEM    = UTC
MEAN_ELEMENT_THEORY = SGP/SGP4

EPOCH          = 2026-03-08T13:52:12.942912
MEAN_MOTION    = 15.80929416
ECCENTRICITY   = .00012729
INCLINATION    = 53.1599
RA_OF_ASC_NODE = 216.7410
ARG_OF_PERICENTER = 98.3381
MEAN_ANOMALY   = 261.7786

EPHEMERIS_TYPE = 0
CLASSIFICATION_TYPE = U
NORAD_CAT_ID   = 67870
ELEMENT_SET_NO = 999
REV_AT_EPOCH   = 376
BSTAR          = .18241148E-2
MEAN_MOTION_DOT = .376444E-2
MEAN_MOTION_DDOT = 0

CCSDS_OMM_VERS = 2.0
CREATION_DATE  = 
ORIGINATOR     = 

OBJECT_NAME    = STARLINK-36769
OBJECT_ID      = 2026-034X
CENTER_NAME    = EARTH
REF_FRAME      = TEME
TIME_SYSTEM    = UTC
MEAN_ELEMENT_THEORY = SGP/SGP4

EPOCH          = 2026-03-08T13:53:17.952864
MEAN_MOTION    = 15.80893647
ECCENTRICITY   = .00016702
INCLINATION    = 53.1598
RA_OF_ASC_NODE = 216.7465
ARG_OF_PERICENTER = 6.1578
MEAN_ANOMALY   = 353.9465

EPHEMERIS_TYPE = 0
CLASSIFICATION_TYPE = U
NORAD_CAT_ID   = 67871
ELEMENT_SET_NO = 999
REV_AT_EPOCH   = 376
BSTAR          = .22126123E-2
MEAN_MOTION_DOT = .460542E-2
MEAN_MOTION_DDOT = 0

CCSDS_OMM_VERS = 2.0
CREATION_DATE  = 
ORIGINATOR     = 

OBJECT_NAME    = STARLINK-36786
OBJECT_ID      = 2026-034Y
CENTER_NAME    = EARTH
REF_FRAME      = TEME
TIME_SYSTEM    = UTC
MEAN_ELEMENT_THEORY = SGP/SGP4

EPOCH          = 2026-03-08T13:51:08.135136
MEAN_MOTION    = 15.80950329
ECCENTRICITY   = .00009603
INCLINATION    = 53.1597
RA_OF_ASC_NODE = 216.7366
ARG_OF_PERICENTER = 74.5129
MEAN_ANOMALY   = 285.5999

EPHEMERIS_TYPE = 0
CLASSIFICATION_TYPE = U
NORAD_CAT_ID   = 67872
ELEMENT_SET_NO = 999
REV_AT_EPOCH   = 376
BSTAR          = .12410762E-2
MEAN_MOTION_DOT = .252443E-2
MEAN_MOTION_DDOT = 0

CCSDS_OMM_VERS = 2.0
CREATION_DATE  = 
ORIGINATOR     = 

OBJECT_NAME    = STARLINK-36783
OBJECT_ID      = 2026-034Z
CENTER_NAME    = EARTH
REF_FRAME      = TEME
TIME_SYSTEM    = UTC
MEAN_ELEMENT_THEORY = SGP/SGP4

EPOCH          = 2026-03-08T13:50:03.310944
MEAN_MOTION    = 15.80960643
ECCENTRICITY   = .00009303
INCLINATION    = 53.1596
RA_OF_ASC_NODE = 216.7308
ARG_OF_PERICENTER = 64.5217
MEAN_ANOMALY   = 295.5902

EPHEMERIS_TYPE = 0
CLASSIFICATION_TYPE = U
NORAD_CAT_ID   = 67873
ELEMENT_SET_NO = 999
REV_AT_EPOCH   = 376
BSTAR          = .16363283E-2
MEAN_MOTION_DOT = .336528E-2
MEAN_MOTION_DDOT = 0

CCSDS_OMM_VERS = 2.0
CREATION_DATE  = 
ORIGINATOR     = 

OBJECT_NAME    = STARLINK-36730
OBJECT_ID      = 2026-034AA
CENTER_NAME    = EARTH
REF_FRAME      = TEME
TIME_SYSTEM    = UTC
MEAN_ELEMENT_THEORY = SGP/SGP4

EPOCH          = 2026-03-08T15:20:00.450240
MEAN_MOTION    = 15.80998258
ECCENTRICITY   = .00012488
INCLINATION    = 53.1594
RA_OF_ASC_NODE = 216.4096
ARG_OF_PERICENTER = 37.6803
MEAN_ANOMALY   = 322.4307

EPHEMERIS_TYPE = 0
CLASSIFICATION_TYPE = U
NORAD_CAT_ID   = 67874
ELEMENT_SET_NO = 999
REV_AT_EPOCH   = 377
BSTAR          = .16305034E-2
MEAN_MOTION_DOT = .335878E-2
MEAN_MOTION_DDOT = 0

CCSDS_OMM_VERS = 2.0
CREATION_DATE  = 
ORIGINATOR     = 

OBJECT_NAME    = STARLINK-36727
OBJECT_ID      = 2026-034AB
CENTER_NAME    = EARTH
REF_FRAME      = TEME
TIME_SYSTEM    = UTC
MEAN_ELEMENT_THEORY = SGP/SGP4

EPOCH          = 2026-03-08T13:47:53.612448
MEAN_MOTION    = 15.80958383
ECCENTRICITY   = .00010032
INCLINATION    = 53.1598
RA_OF_ASC_NODE = 216.7208
ARG_OF_PERICENTER = 52.4305
MEAN_ANOMALY   = 307.6809

EPHEMERIS_TYPE = 0
CLASSIFICATION_TYPE = U
NORAD_CAT_ID   = 67875
ELEMENT_SET_NO = 999
REV_AT_EPOCH   = 376
BSTAR          = .1262252E-2
MEAN_MOTION_DOT = .256995E-2
MEAN_MOTION_DDOT = 0

CCSDS_OMM_VERS = 2.0
CREATION_DATE  = 
ORIGINATOR     = 

OBJECT_NAME    = STARLINK-36743
OBJECT_ID      = 2026-034AC
CENTER_NAME    = EARTH
REF_FRAME      = TEME
TIME_SYSTEM    = UTC
MEAN_ELEMENT_THEORY = SGP/SGP4

EPOCH          = 2026-03-08T13:46:48.850464
MEAN_MOTION    = 15.80953129
ECCENTRICITY   = .00016127
INCLINATION    = 53.1599
RA_OF_ASC_NODE = 216.7150
ARG_OF_PERICENTER = 40.4805
MEAN_ANOMALY   = 319.6337

EPHEMERIS_TYPE = 0
CLASSIFICATION_TYPE = U
NORAD_CAT_ID   = 67876
ELEMENT_SET_NO = 999
REV_AT_EPOCH   = 376
BSTAR          = .11842562E-2
MEAN_MOTION_DOT = .240548E-2
MEAN_MOTION_DDOT = 0

