STARLINK-36738          
1 67865U 26034R   26067.58242925  .00301141  00000+0  14705-2 0  9993
2 67865  53.1590 216.7724 0001112  82.9686 277.1463 15.80964340  3766
STARLINK-36780          
1 67866U 26034S   26067.58167847  .00314071  00000+0  15313-2 0  9995
2 67866  53.1594 216.7661 0001003  90.2390 269.8748 15.80962671  3763
STARLINK-36761          
1 67867U 26034T   26067.64414596  .00380849  00000+0  18378-2 0  9999
2 67867  53.1594 216.4453 0000678  96.6886 263.4214 15.81006906  3777
STARLINK-36762          
1 67868U 26034U   26067.58017862  .00298581  00000+0  14583-2 0  9993
2 67868  53.1594 216.7572 0001092  79.7067 280.4078 15.80966847  3761
STARLINK-36779          
1 67869U 26034V   26067.57942898  .00613078  00000+0  28861-2 0  9995
2 67869  53.1594 216.7514 0000975  26.5360 333.5712 15.80935225  3764
STARLINK-36770          
1 67870U 26034W   26067.57792758  .00376444  00000+0  18241-2 0  9999
2 67870  53.1599 216.7410 0001272  98.3381 261.7786 15.80929416  3765
STARLINK-36769          
1 67871U 26034X   26067.57868001  .00460542  00000+0  22126-2 0  9995
2 67871  53.1598 216.7465 0001670   6.1578 353.9465 15.80893647  3766
STARLINK-36786          
1 67872U 26034Y   26067.57717749  .00252443  00000+0  12411-2 0  9993
2 67872  53.1597 216.7366 0000960  74.5129 285.5999 15.80950329  3761
STARLINK-36783          
1 67873U 26034Z   26067.57642721  .00336528  00000+0  16363-2 0  9998
2 67873  53.1596 216.7308 0000930  64.5217 295.5902 15.80960643  3766
STARLINK-36730          
1 67874U 26034AA  26067.63889410  .00335878  00000+0  16305-2 0  9997
2 67874  53.1594 216.4096 0001248  37.6803 322.4307 15.80998258  3774
STARLINK-36727          
1 67875U 26034AB  26067.57492607  .00256995  00000+0  12623-2 0  9990
2 67875  53.1598 216.7208 0001003  52.4305 307.6809 15.80958383  3764
STARLINK-36743          
1 67876U 26034AC  26067.57417651  .00240548  00000+0  11843-2 0  9997
2 67876  53.1599 216.7150 0001612  40.4805 319.6337 15.80953129  3762
